JILIN-1 10              
1 43946U 19005E   25170.24065639  .00004478  00000+0  20962-3 0  9995
2 43946  97.4809 265.5921 0010548 110.2078 250.0292 15.20205716354070
EGYPTSAT-A (MISRSAT-A)  
1 44047U 19008A   25170.16246911  .00000561  00000+0  96534-4 0  9994
2 44047  98.0197 235.2007 0001900 103.5076 256.6343 14.72359213339827
EMISAT                  
1 44078U 19018A   25170.10837484  .00000190  00000+0  68399-4 0  9990
2 44078  98.2863 226.8433 0017397 228.9957 130.9730 14.43778896327662
JILIN-1 GAOFEN 3A       
1 44312U 19032C   25170.16867918  .00006861  00000+0  29771-3 0  9999
2 44312  44.9819 179.7086 0011747  21.9704 338.1678 15.23001425332403
XIAOXIANG 4             
1 44313U 19032D   25170.10110831  .00061569  00000+0  89147-3 0  9998
2 44313  44.9891 113.4566 0014316 103.9799 256.2687 15.54984890333223
WT 1A                   
1 44315U 19032F   25170.22586142  .00024002  00000+0  61526-3 0  9997
2 44315  44.9841 130.0613 0014567  80.2667 279.9864 15.38900449332999
WT 1B                   
1 44316U 19032G   25170.20422569  .00006942  00000+0  35014-3 0  9994
2 44316  44.9757 227.6768 0016104 337.8464  22.1718 15.17719320331791
PROX-1                  
1 44339U 19036A   25169.85454215  .00009417  00000+0  11788-2 0  9996
2 44339  23.9981   0.8658 0006892 178.3053 181.7468 14.80136843319394
NPSAT1                  
1 44340U 19036B   25169.85691254  .00004675  00000+0  73056-3 0  9992
2 44340  23.9994  54.8983 0008552  81.3296 278.8168 14.69616999318898
FORMOSAT 7-3            
1 44343U 19036E   25169.28213271  .00003259  00000+0  19703-3 0  9997
2 44343  23.9978 155.4539 0000482 265.5050  94.5398 15.05765347328258
FORMOSAT 7-1            
1 44349U 19036L   25169.74980353  .00003908  00000+0  24138-3 0  9995
2 44349  23.9997 328.2984 0002014  27.4746 332.5863 15.05654342330098
FORMOSAT 7-4            
1 44350U 19036M   25169.90357270  .00004028  00000+0  24986-3 0  9996
2 44350  23.9999  29.3218 0000483 289.5568  70.4883 15.05603010329535
FORMOSAT 7-2            
1 44351U 19036N   25170.05894031  .00003830  00000+0  23583-3 0  9998
2 44351  23.9983  82.5858 0000725 340.5586  19.4890 15.05707295329123
FORMOSAT 7-6            
1 44353U 19036Q   25169.66126450  .00003553  00000+0  21737-3 0  9999
2 44353  23.9979 266.1362 0001409  62.3624 297.7022 15.05671189327243
FORMOSAT 7-5            
1 44358U 19036V   25169.77052255  .00003346  00000+0  20369-3 0  9997
2 44358  23.9977 205.1587 0000317 179.7459 180.3044 15.05628619327784
METEOR-M2 2             
1 44387U 19038A   25170.19279579  .00000091  00000+0  59116-4 0  9996
2 44387  98.8746 147.9684 0001502  32.7960 327.3311 14.24211163309629
SONATE                  
1 44400U 19038Q   25169.96983673  .00477865  10420-3  83481-3 0  9991
2 44400  97.6779 198.3611 0008783 191.7119 168.3956 16.02085997331072
COSMOS 2535             
1 44421U 19039A   25170.16507207  .00000974  00000+0  10454-3 0  9996
2 44421  97.6179 206.5782 0008215 352.1501   7.9587 14.90779474322431
QIANSHENG 1-01          
1 44486U 19052A   25170.15141916  .00200817  00000+0  11219-2 0  9999
2 44486  97.3549 250.4967 0000988 113.3677 246.7694 15.78818536323346
GLOBAL-4                
1 44499U 19054E   25170.17476984  .00013103  00000+0  33773-3 0  9993
2 44499  45.0107 125.4785 0004561 158.1216 201.9867 15.39223986324113
ZY-1 02D                
1 44528U 19059A   25170.18543662  .00000107  00000+0  51917-4 0  9991
2 44528  98.3672 238.5235 0002696 112.4498 247.6974 14.35441450302263
TAURUS-1 (JINNIUZUO 1)  
1 44530U 19059C   25170.21416013  .00005007  00000+0  92356-3 0  9992
2 44530  98.6079 310.0653 0008905  14.6946 345.4514 14.65952297305359
ZHUHAI-1 03A            
1 44534U 19060A   25170.22396133  .00143893  00000+0  80109-3 0  9998
2 44534  97.5205 317.7992 0005743 153.0328 207.1238 15.79030322320818
ZHUHAI-1 03B            
1 44536U 19060C   25170.16949030  .00013124  00000+0  41112-3 0  9997
2 44536  97.5182 310.7154 0013642 183.5254 176.5894 15.33131248320366
ZHUHAI-1 03C            
1 44537U 19060D   25170.18121094  .00022248  00000+0  51322-3 0  9993
2 44537  97.5443 313.6307 0019760 154.6307 205.5914 15.42371691320582
ZHUHAI-1 03D            
1 44538U 19060E   25170.15744369  .00012242  00000+0  41762-3 0  9997
2 44538  97.5012 305.6063 0012790 163.9742 196.1905 15.30413929320243
ZHUHAI-1 03E            
1 44539U 19060F   25170.18852217  .00010623  00000+0  39872-3 0  9993
2 44539  97.5208 307.6197 0010797 217.4414 142.6073 15.27344069320120
ATLAS 5 CENTAUR DEB     
1 44694U 18079BG  25168.10975049 -.00000087  00000+0  00000+0 0  9993
2 44694  13.1890  68.8998 4751014 240.9587  63.4713  1.77432652 40089
GAOFEN-7                
1 44703U 19072A   25170.14280248  .00004063  00000+0  18445-3 0  9998
2 44703  97.2906 239.1148 0010112 195.4323 164.6606 15.21300059312442
STARLINK-1010           
1 44716U 19074D   25169.57246800  .00079066  00000+0  14196-2 0  9998
2 44716  53.0563 280.1696 0005654 289.2591  70.7805 15.49206749309099
JILIN-1 GAOFEN 2A       
1 44777U 19075A   25170.19463862  .00008172  00000+0  30006-3 0  9994
2 44777  97.5315 242.9956 0006713 297.9937  62.0622 15.28184116309255
NINGXIA-1 1             
1 44779U 19076A   25170.11149220 -.00000046  00000+0  54802-4 0  9992
2 44779  45.0080   2.2532 0011254 239.8943 120.0776 14.01926210286909
NINGXIA-1 5             
1 44783U 19076E   25170.05344423 -.00000050  00000+0  51792-4 0  9992
2 44783  45.0079   1.8628 0011189 227.8200 132.1685 14.01950398286900
KL-ALPHA A              
1 44785U 19077A   25170.22455471  .00000056  00000+0  62597-4 0  9990
2 44785  88.9099 262.6544 0013268  90.0062 270.2612 13.55997272276543
CARTOSAT-3              
1 44804U 19081A   25170.11336582  .00003676  00000+0  17764-3 0  9992
2 44804  97.4803 231.6341 0013032 345.0427  15.0420 15.19191819308296
JILIN-1 GAOFEN 2B       
1 44836U 19086A   25170.18861639  .00004914  00000+0  26440-3 0  9992
2 44836  97.5306 240.0036 0017083 138.0474 222.2070 15.15193481305425
DUCHIFAT-3              
1 44854U 19089C   25169.72501518  .00038102  00000+0  72424-3 0  9999
2 44854  36.9431 297.0182 0003858  20.8981 339.1933 15.47310159304435
ANGELS                  
1 44876U 19092D   25169.52009418  .00021056  00000+0  45031-3 0  9991
2 44876  97.4560   8.1765 0008248  96.9969 263.2217 15.44807354305528
TIANQIN 1 (CAS-6)       
1 44879U 19093A   25170.17430886  .00003217  00000+0  31716-3 0  9999
2 44879  97.8067 251.8256 0012149 173.7136 186.4238 14.92673658297848
ETRSS-1                 
1 44880U 19093B   25170.17887689  .00003165  00000+0  31091-3 0  9996
2 44880  97.8076 252.0852 0012312 174.8627 185.2721 14.92833227297848
TIANYAN 01              
1 44881U 19093C   25170.19149692  .00000813  00000+0  99926-4 0  9993
2 44881  97.7923 245.6403 0013418 194.2016 165.8824 14.85619940297502
TIANYAN 02              
1 44882U 19093D   25170.21798963  .00004231  00000+0  35223-3 0  9995
2 44882  97.8205 257.8348 0011069 164.0109 196.1465 14.99162399298121
CBERS 4A                
1 44883U 19093E   25170.15505010  .00000858  00000+0  11577-3 0  9995
2 44883  97.7927 243.1398 0000698 234.3624 125.7524 14.81580917297320
WEILAI 1R               
1 44884U 19093F   25170.20299101  .00003249  00000+0  29215-3 0  9998
2 44884  97.8101 255.1967 0010562 167.7548 192.3932 14.96325400298061
FLORIPASAT-1            
1 44885U 19093G   25170.16332061  .00004212  00000+0  35620-3 0  9995
2 44885  97.8150 257.7842 0010797 170.7157 189.4267 14.98562853298184
SHUNTIAN                
1 44886U 19093H   25170.17027969  .00002475  00000+0  24609-3 0  9999
2 44886  97.8203 255.4998 0012380 185.1817 174.9276 14.92541925297981
2019-093L               
1 44889U 19093L   25170.17086266  .00002944  00000+0  29787-3 0  9990
2 44889  97.7884 247.7679 0012952 170.8810 189.2646 14.91685052297616
ELEKTRO-L 3             
1 44903U 19095A   25169.88100347 -.00000085  00000+0  00000+0 0  9990
2 44903   0.0726 164.0434 0000564 326.7918 169.7426  1.00270918 20061
GONETS-M 14             
1 44905U 19096A   25169.84491748  .00000045  00000+0  25262-3 0  9993
2 44905  82.5238 309.8784 0013273 222.2009 137.8050 12.42893887248543
GONETS-M 15             
1 44906U 19096B   25170.19209116  .00000043  00000+0  23669-3 0  9997
2 44906  82.5258 310.0599 0014856 244.8451 115.1088 12.42896185248581
GONETS-M 16             
1 44907U 19096C   25169.89745159  .00000037  00000+0  19391-3 0  9995
2 44907  82.5203 309.3591 0010273 289.6801  70.3170 12.42854382248509
RS-44 & BREEZE-KM R/B   
1 44909U 19096E   25169.85725127  .00000008  00000+0 -35423-5 0  9991
2 44909  82.5208 221.1146 0216246 273.9184  83.7222 12.79741266255871
JILIN-1 KUANFU 01       
1 45016U 20003A   25170.19839487  .00002764  00000+0  17027-3 0  9993
2 45016  97.5407 245.6332 0001641 219.9258 140.1851 15.10797491300549
XINGYUN-2 01            
1 45602U 20028A   25170.22956516  .00001881  00000+0  12111-3 0  9996
2 45602  97.4651 165.9559 0010176  22.7988 337.3691 15.09518308280048
XINGYUN-2 02            
1 45603U 20028B   25170.22870770  .00002258  00000+0  14497-3 0  9992
2 45603  97.5080 178.1401 0013209  80.8311 279.4412 15.09406552280047
HAIYANG-1D              
1 45721U 20036A   25170.19141235  .00000143  00000+0  66965-4 0  9994
2 45721  98.6302 115.1170 0002640  94.0466 266.1020 14.34114374262948
M2 PATHFINDER           
1 45727U 20037E   25169.46464274  .00002577  00000+0  19994-3 0  9992
2 45727  97.8120 352.1769 0012311 302.2266  57.7764 15.02234659270840
GAOFEN DUOMO (GFDM)     
1 45856U 20042A   25170.18371904  .00000729  00000+0  11096-3 0  9991
2 45856  97.8240 237.1882 0012718 162.4016 197.7638 14.76759600267438
ZINYUAN-3               
1 45939U 20051A   25170.18886088  .00004194  00000+0  18998-3 0  9995
2 45939  97.3260 243.6168 0003625 187.1776 172.9409 15.21393235272166
